GLOBALSTAR M023 [+]     
1 25621U 99004A   24043.17105163 -.00000008  00000+0  53286-3 0  9990
2 25621  52.0103 108.5270 0010833 120.8098 258.0334 12.62447822153805
GLOBALSTAR M040 [-]     
1 25622U 99004B   24042.49952410 -.00000055  00000+0  27166-3 0  9990
2 25622  51.9912 114.0062 0000971  77.5853  24.3947 12.61965953153175
GLOBALSTAR M036 [-]     
1 25623U 99004C   24043.18026314 -.00000049  00000+0  48717-3 0  9991
2 25623  51.9964  94.4615 0011800 189.0142 204.7612 11.86560177120678
GLOBALSTAR M038 [-]     
1 25624U 99004D   24042.96314885 -.00000079  00000+0  12935-3 0  9996
2 25624  51.9984  46.1964 0002030 111.4784 268.4871 12.32492874141800
GLOBALSTAR M022 [-]     
1 25649U 99012A   24042.57260803 -.00000097  00000+0 -12264-3 0  9995
2 25649  52.0018 187.3064 0001644 269.2740 170.5401 12.02477643117315
GLOBALSTAR M041 [-]     
1 25650U 99012B   24043.15800139 -.00000103  00000+0 -22232-3 0  9998
2 25650  52.0030  52.1961 0002343  68.3007 291.8079 11.96656694119741
GLOBALSTAR M046 [-]     
1 25651U 99012C   24042.59995840 -.00000138  00000+0 -54168-3 0  9991
2 25651  52.0039 155.3095 0001780  16.9739  87.3872 12.09383267124530
GLOBALSTAR M037 [+]     
1 25652U 99012D   24042.74655003 -.00000075  00000+0  16207-3 0  9994
2 25652  51.9979 240.6281 0002116 147.5989 294.4162 12.62395931149203
