<?xml version="1.0" encoding="UTF-8"?>
<ndm xmlns:xsi="http://www.w3.org/2001/XMLSchema-instance" xsi:noNamespaceSchemaLocation="https://sanaregistry.org/r/ndmxml_unqualified/ndmxml-2.0.0-master-2.0.xsd">
<omm id="CCSDS_OMM_VERS" version="2.0">
<header><CREATION_DATE/><ORIGINATOR/></header><body><segment><metadata><OBJECT_NAME>GLOBALSTAR M023 [+]</OBJECT_NAME><OBJECT_ID>1999-004A</OBJECT_ID><CENTER_NAME>EARTH</CENTER_NAME><REF_FRAME>TEME</REF_FRAME><TIME_SYSTEM>UTC</TIME_SYSTEM><MEAN_ELEMENT_THEORY>SGP4</MEAN_ELEMENT_THEORY></metadata><data><meanElements><EPOCH>2024-02-12T04:06:18.860832</EPOCH><MEAN_MOTION>12.62447822</MEAN_MOTION><ECCENTRICITY>.0010833</ECCENTRICITY><INCLINATION>52.0103</INCLINATION><RA_OF_ASC_NODE>108.5270</RA_OF_ASC_NODE><ARG_OF_PERICENTER>120.8098</ARG_OF_PERICENTER><MEAN_ANOMALY>258.0334</MEAN_ANOMALY></meanElements><tleParameters><EPHEMERIS_TYPE>0</EPHEMERIS_TYPE><CLASSIFICATION_TYPE>U</CLASSIFICATION_TYPE><NORAD_CAT_ID>25621</NORAD_CAT_ID><ELEMENT_SET_NO>999</ELEMENT_SET_NO><REV_AT_EPOCH>15380</REV_AT_EPOCH><BSTAR>.53286E-3</BSTAR><MEAN_MOTION_DOT>-.8E-7</MEAN_MOTION_DOT><MEAN_MOTION_DDOT>0</MEAN_MOTION_DDOT></tleParameters></data></segment></body></omm>
<omm id="CCSDS_OMM_VERS" version="2.0">
<header><CREATION_DATE/><ORIGINATOR/></header><body><segment><metadata><OBJECT_NAME>GLOBALSTAR M040 [-]</OBJECT_NAME><OBJECT_ID>1999-004B</OBJECT_ID><CENTER_NAME>EARTH</CENTER_NAME><REF_FRAME>TEME</REF_FRAME><TIME_SYSTEM>UTC</TIME_SYSTEM><MEAN_ELEMENT_THEORY>SGP4</MEAN_ELEMENT_THEORY></metadata><data><meanElements><EPOCH>2024-02-11T11:59:18.882240</EPOCH><MEAN_MOTION>12.61965953</MEAN_MOTION><ECCENTRICITY>.0000971</ECCENTRICITY><INCLINATION>51.9912</INCLINATION><RA_OF_ASC_NODE>114.0062</RA_OF_ASC_NODE><ARG_OF_PERICENTER>77.5853</ARG_OF_PERICENTER><MEAN_ANOMALY>24.3947</MEAN_ANOMALY></meanElements><tleParameters><EPHEMERIS_TYPE>0</EPHEMERIS_TYPE><CLASSIFICATION_TYPE>U</CLASSIFICATION_TYPE><NORAD_CAT_ID>25622</NORAD_CAT_ID><ELEMENT_SET_NO>999</ELEMENT_SET_NO><REV_AT_EPOCH>15317</REV_AT_EPOCH><BSTAR>.27166E-3</BSTAR><MEAN_MOTION_DOT>-.55E-6</MEAN_MOTION_DOT><MEAN_MOTION_DDOT>0</MEAN_MOTION_DDOT></tleParameters></data></segment></body></omm>
<omm id="CCSDS_OMM_VERS" version="2.0">
<header><CREATION_DATE/><ORIGINATOR/></header><body><segment><metadata><OBJECT_NAME>GLOBALSTAR M036 [-]</OBJECT_NAME><OBJECT_ID>1999-004C</OBJECT_ID><CENTER_NAME>EARTH</CENTER_NAME><REF_FRAME>TEME</REF_FRAME><TIME_SYSTEM>UTC</TIME_SYSTEM><MEAN_ELEMENT_THEORY>SGP4</MEAN_ELEMENT_THEORY></metadata><data><meanElements><EPOCH>2024-02-12T04:19:34.735296</EPOCH><MEAN_MOTION>11.86560177</MEAN_MOTION><ECCENTRICITY>.00118</ECCENTRICITY><INCLINATION>51.9964</INCLINATION><RA_OF_ASC_NODE>94.4615</RA_OF_ASC_NODE><ARG_OF_PERICENTER>189.0142</ARG_OF_PERICENTER><MEAN_ANOMALY>204.7612</MEAN_ANOMALY></meanElements><tleParameters><EPHEMERIS_TYPE>0</EPHEMERIS_TYPE><CLASSIFICATION_TYPE>U</CLASSIFICATION_TYPE><NORAD_CAT_ID>25623</NORAD_CAT_ID><ELEMENT_SET_NO>999</ELEMENT_SET_NO><REV_AT_EPOCH>12067</REV_AT_EPOCH><BSTAR>.48717E-3</BSTAR><MEAN_MOTION_DOT>-.49E-6</MEAN_MOTION_DOT><MEAN_MOTION_DDOT>0</MEAN_MOTION_DDOT></tleParameters></data></segment></body></omm>
<omm id="CCSDS_OMM_VERS" version="2.0">
<header><CREATION_DATE/><ORIGINATOR/></header><body><segment><metadata><OBJECT_NAME>GLOBALSTAR M038 [-]</OBJECT_NAME><OBJECT_ID>1999-004D</OBJECT_ID><CENTER_NAME>EARTH</CENTER_NAME><REF_FRAME>TEME</REF_FRAME><TIME_SYSTEM>UTC</TIME_SYSTEM><MEAN_ELEMENT_THEORY>SGP4</MEAN_ELEMENT_THEORY></metadata><data><meanElements><EPOCH>2024-02-11T23:06:56.060640</EPOCH><MEAN_MOTION>12.32492874</MEAN_MOTION><ECCENTRICITY>.000203</ECCENTRICITY><INCLINATION>51.9984</INCLINATION><RA_OF_ASC_NODE>46.1964</RA_OF_ASC_NODE><ARG_OF_PERICENTER>111.4784</ARG_OF_PERICENTER><MEAN_ANOMALY>268.4871</MEAN_ANOMALY></meanElements><tleParameters><EPHEMERIS_TYPE>0</EPHEMERIS_TYPE><CLASSIFICATION_TYPE>U</CLASSIFICATION_TYPE><NORAD_CAT_ID>25624</NORAD_CAT_ID><ELEMENT_SET_NO>999</ELEMENT_SET_NO><REV_AT_EPOCH>14180</REV_AT_EPOCH><BSTAR>.12935E-3</BSTAR><MEAN_MOTION_DOT>-.79E-6</MEAN_MOTION_DOT><MEAN_MOTION_DDOT>0</MEAN_MOTION_DDOT></tleParameters></data></segment></body></omm>
<omm id="CCSDS_OMM_VERS" version="2.0">
<header><CREATION_DATE/><ORIGINATOR/></header><body><segment><metadata><OBJECT_NAME>GLOBALSTAR M022 [-]</OBJECT_NAME><OBJECT_ID>1999-012A</OBJECT_ID><CENTER_NAME>EARTH</CENTER_NAME><REF_FRAME>TEME</REF_FRAME><TIME_SYSTEM>UTC</TIME_SYSTEM><MEAN_ELEMENT_THEORY>SGP4</MEAN_ELEMENT_THEORY></metadata><data><meanElements><EPOCH>2024-02-11T13:44:33.333792</EPOCH><MEAN_MOTION>12.02477643</MEAN_MOTION><ECCENTRICITY>.0001644</ECCENTRICITY><INCLINATION>52.0018</INCLINATION><RA_OF_ASC_NODE>187.3064</RA_OF_ASC_NODE><ARG_OF_PERICENTER>269.2740</ARG_OF_PERICENTER><MEAN_ANOMALY>170.5401</MEAN_ANOMALY></meanElements><tleParameters><EPHEMERIS_TYPE>0</EPHEMERIS_TYPE><CLASSIFICATION_TYPE>U</CLASSIFICATION_TYPE><NORAD_CAT_ID>25649</NORAD_CAT_ID><ELEMENT_SET_NO>999</ELEMENT_SET_NO><REV_AT_EPOCH>11731</REV_AT_EPOCH><BSTAR>-.12264E-3</BSTAR><MEAN_MOTION_DOT>-.97E-6</MEAN_MOTION_DOT><MEAN_MOTION_DDOT>0</MEAN_MOTION_DDOT></tleParameters></data></segment></body></omm>
<omm id="CCSDS_OMM_VERS" version="2.0">
<header><CREATION_DATE/><ORIGINATOR/></header><body><segment><metadata><OBJECT_NAME>GLOBALSTAR M041 [-]</OBJECT_NAME><OBJECT_ID>1999-012B</OBJECT_ID><CENTER_NAME>EARTH</CENTER_NAME><REF_FRAME>TEME</REF_FRAME><TIME_SYSTEM>UTC</TIME_SYSTEM><MEAN_ELEMENT_THEORY>SGP4</MEAN_ELEMENT_THEORY></metadata><data><meanElements><EPOCH>2024-02-12T03:47:31.320096</EPOCH><MEAN_MOTION>11.96656694</MEAN_MOTION><ECCENTRICITY>.0002343</ECCENTRICITY><INCLINATION>52.0030</INCLINATION><RA_OF_ASC_NODE>52.1961</RA_OF_ASC_NODE><ARG_OF_PERICENTER>68.3007</ARG_OF_PERICENTER><MEAN_ANOMALY>291.8079</MEAN_ANOMALY></meanElements><tleParameters><EPHEMERIS_TYPE>0</EPHEMERIS_TYPE><CLASSIFICATION_TYPE>U</CLASSIFICATION_TYPE><NORAD_CAT_ID>25650</NORAD_CAT_ID><ELEMENT_SET_NO>999</ELEMENT_SET_NO><REV_AT_EPOCH>11974</REV_AT_EPOCH><BSTAR>-.22232E-3</BSTAR><MEAN_MOTION_DOT>-.103E-5</MEAN_MOTION_DOT><MEAN_MOTION_DDOT>0</MEAN_MOTION_DDOT></tleParameters></data></segment></body></omm>
<omm id="CCSDS_OMM_VERS" version="2.0">
<header><CREATION_DATE/><ORIGINATOR/></header><body><segment><metadata><OBJECT_NAME>GLOBALSTAR M046 [-]</OBJECT_NAME><OBJECT_ID>1999-012C</OBJECT_ID><CENTER_NAME>EARTH</CENTER_NAME><REF_FRAME>TEME</REF_FRAME><TIME_SYSTEM>UTC</TIME_SYSTEM><MEAN_ELEMENT_THEORY>SGP4</MEAN_ELEMENT_THEORY></metadata><data><meanElements><EPOCH>2024-02-11T14:23:56.405760</EPOCH><MEAN_MOTION>12.09383267</MEAN_MOTION><ECCENTRICITY>.000178</ECCENTRICITY><INCLINATION>52.0039</INCLINATION><RA_OF_ASC_NODE>155.3095</RA_OF_ASC_NODE><ARG_OF_PERICENTER>16.9739</ARG_OF_PERICENTER><MEAN_ANOMALY>87.3872</MEAN_ANOMALY></meanElements><tleParameters><EPHEMERIS_TYPE>0</EPHEMERIS_TYPE><CLASSIFICATION_TYPE>U</CLASSIFICATION_TYPE><NORAD_CAT_ID>25651</NORAD_CAT_ID><ELEMENT_SET_NO>999</ELEMENT_SET_NO><REV_AT_EPOCH>12453</REV_AT_EPOCH><BSTAR>-.54168E-3</BSTAR><MEAN_MOTION_DOT>-.138E-5</MEAN_MOTION_DOT><MEAN_MOTION_DDOT>0</MEAN_MOTION_DDOT></tleParameters></data></segment></body></omm>
<omm id="CCSDS_OMM_VERS" version="2.0">
<header><CREATION_DATE/><ORIGINATOR/></header><body><segment><metadata><OBJECT_NAME>GLOBALSTAR M037 [+]</OBJECT_NAME><OBJECT_ID>1999-012D</OBJECT_ID><CENTER_NAME>EARTH</CENTER_NAME><REF_FRAME>TEME</REF_FRAME><TIME_SYSTEM>UTC</TIME_SYSTEM><MEAN_ELEMENT_THEORY>SGP4</MEAN_ELEMENT_THEORY></metadata><data><meanElements><EPOCH>2024-02-11T17:55:01.922592</EPOCH><MEAN_MOTION>12.62395931</MEAN_MOTION><ECCENTRICITY>.0002116</ECCENTRICITY><INCLINATION>51.9979</INCLINATION><RA_OF_ASC_NODE>240.6281</RA_OF_ASC_NODE><ARG_OF_PERICENTER>147.5989</ARG_OF_PERICENTER><MEAN_ANOMALY>294.4162</MEAN_ANOMALY></meanElements><tleParameters><EPHEMERIS_TYPE>0</EPHEMERIS_TYPE><CLASSIFICATION_TYPE>U</CLASSIFICATION_TYPE><NORAD_CAT_ID>25652</NORAD_CAT_ID><ELEMENT_SET_NO>999</ELEMENT_SET_NO><REV_AT_EPOCH>14920</REV_AT_EPOCH><BSTAR>.16207E-3</BSTAR><MEAN_MOTION_DOT>-.75E-6</MEAN_MOTION_DOT><MEAN_MOTION_DDOT>0</MEAN_MOTION_DDOT></tleParameters></data></segment></body></omm>

</ndm>
